IDEFIX & ARIANE 42P R/B 
1 27422U 02021B   26040.45775941  .00000372  00000+0  15779-3 0  9999
2 27422  98.5841 339.4068 0010665 271.6638  88.3324 14.31005712239981
AQUA                    
1 27424U 02022A   26040.49549552  .00001318  00000+0  27317-3 0  9995
2 27424  98.4124   7.3586 0001478  52.6004  57.5882 14.61906539264613
CZ-4B R/B               
1 27432U 02024C   26040.13549726  .00000036  00000+0  41406-4 0  9992
2 27432  98.8903  93.6772 0051145 103.9751 280.8617 14.14542349225203
MIDORI II (ADEOS-II)    
1 27597U 02056A   26040.45155704  .00000420  00000+0  18292-3 0  9996
2 27597  98.7719 358.7436 0002142  82.5205 277.6220 14.29263696206260
H-2A R/B                
1 27601U 02056E   26040.52304237  .00000392  00000+0  15242-3 0  9997
2 27601  98.3150   1.9700 0069062 245.1997 226.6431 14.33740707210071
CZ-4B R/B               
1 28059U 03049C   26040.46357583  .00000606  00000+0  15065-3 0  9994
2 28059  98.6849  34.2682 0047423 318.9817  40.7815 14.54989120182494
CZ-2C R/B               
1 28222U 04012C   26040.11550734  .00045102  00000+0  52844-3 0  9998
2 28222  97.7306 102.7671 0015883  58.8429 301.4383 15.61253512199816
SL-16 R/B               
1 28353U 04021B   26040.10126036  .00000132  00000+0  93694-4 0  9999
2 28353  70.9998 292.4907 0002958  81.3411 278.8046 14.14590089118792
CZ-4B R/B               
1 28415U 04035C   26040.04429918  .00009599  00000+0  34242-3 0  9990
2 28415  97.3548  74.6358 0034135  71.3855 289.1086 15.28532312175533
CZ-2C R/B               
1 28480U 04046B   26040.36782035  .00000172  00000+0  79757-4 0  9990
2 28480  98.1994 317.1108 0138332 238.4202 120.3415 14.26982239104463
ARIANE 5 R/B            
1 28499U 04049H   26040.47214470  .00001193  00000+0  13730-3 0  9990
2 28499  98.2582 207.8826 0085502  82.7071 278.3851 14.85208492141605
CZ-2D R/B               
1 28738U 05024B   26040.46440637  .00042613  00000+0  57452-3 0  9996
2 28738  97.3624  54.6313 0007467 114.8517 245.3516 15.57673086135388
