CCSDS_OMM_VERS = 2.0
CREATION_DATE  = 
ORIGINATOR     = 

OBJECT_NAME    = IDEFIX & ARIANE 42P R/B
OBJECT_ID      = 2002-021B
CENTER_NAME    = EARTH
REF_FRAME      = TEME
TIME_SYSTEM    = UTC
MEAN_ELEMENT_THEORY = SGP/SGP4

EPOCH          = 2026-02-09T10:59:10.413024
MEAN_MOTION    = 14.31005712
ECCENTRICITY   = .0010665
INCLINATION    = 98.5841
RA_OF_ASC_NODE = 339.4068
ARG_OF_PERICENTER = 271.6638
MEAN_ANOMALY   = 88.3324

EPHEMERIS_TYPE = 0
CLASSIFICATION_TYPE = U
NORAD_CAT_ID   = 27422
ELEMENT_SET_NO = 999
REV_AT_EPOCH   = 23998
BSTAR          = .15779E-3
MEAN_MOTION_DOT = .372E-5
MEAN_MOTION_DDOT = 0

CCSDS_OMM_VERS = 2.0
CREATION_DATE  = 
ORIGINATOR     = 

OBJECT_NAME    = AQUA
OBJECT_ID      = 2002-022A
CENTER_NAME    = EARTH
REF_FRAME      = TEME
TIME_SYSTEM    = UTC
MEAN_ELEMENT_THEORY = SGP/SGP4

EPOCH          = 2026-02-09T11:53:30.812928
MEAN_MOTION    = 14.61906539
ECCENTRICITY   = .0001478
INCLINATION    = 98.4124
RA_OF_ASC_NODE = 7.3586
ARG_OF_PERICENTER = 52.6004
MEAN_ANOMALY   = 57.5882

EPHEMERIS_TYPE = 0
CLASSIFICATION_TYPE = U
NORAD_CAT_ID   = 27424
ELEMENT_SET_NO = 999
REV_AT_EPOCH   = 26461
BSTAR          = .27317E-3
MEAN_MOTION_DOT = .1318E-4
MEAN_MOTION_DDOT = 0

CCSDS_OMM_VERS = 2.0
CREATION_DATE  = 
ORIGINATOR     = 

OBJECT_NAME    = CZ-4B R/B
OBJECT_ID      = 2002-024C
CENTER_NAME    = EARTH
REF_FRAME      = TEME
TIME_SYSTEM    = UTC
MEAN_ELEMENT_THEORY = SGP/SGP4

EPOCH          = 2026-02-09T03:15:06.963264
MEAN_MOTION    = 14.14542349
ECCENTRICITY   = .0051145
INCLINATION    = 98.8903
RA_OF_ASC_NODE = 93.6772
ARG_OF_PERICENTER = 103.9751
MEAN_ANOMALY   = 280.8617

EPHEMERIS_TYPE = 0
CLASSIFICATION_TYPE = U
NORAD_CAT_ID   = 27432
ELEMENT_SET_NO = 999
REV_AT_EPOCH   = 22520
BSTAR          = .41405711E-4
MEAN_MOTION_DOT = .36E-6
MEAN_MOTION_DDOT = 0

CCSDS_OMM_VERS = 2.0
CREATION_DATE  = 
ORIGINATOR     = 

OBJECT_NAME    = MIDORI II (ADEOS-II)
OBJECT_ID      = 2002-056A
CENTER_NAME    = EARTH
REF_FRAME      = TEME
TIME_SYSTEM    = UTC
MEAN_ELEMENT_THEORY = SGP/SGP4

EPOCH          = 2026-02-09T10:50:14.528256
MEAN_MOTION    = 14.29263696
ECCENTRICITY   = .0002142
INCLINATION    = 98.7719
RA_OF_ASC_NODE = 358.7436
ARG_OF_PERICENTER = 82.5205
MEAN_ANOMALY   = 277.6220

EPHEMERIS_TYPE = 0
CLASSIFICATION_TYPE = U
NORAD_CAT_ID   = 27597
ELEMENT_SET_NO = 999
REV_AT_EPOCH   = 20626
BSTAR          = .18292E-3
MEAN_MOTION_DOT = .42E-5
MEAN_MOTION_DDOT = 0

CCSDS_OMM_VERS = 2.0
CREATION_DATE  = 
ORIGINATOR     = 

OBJECT_NAME    = H-2A R/B
OBJECT_ID      = 2002-056E
CENTER_NAME    = EARTH
REF_FRAME      = TEME
TIME_SYSTEM    = UTC
MEAN_ELEMENT_THEORY = SGP/SGP4

EPOCH          = 2026-02-09T12:33:10.860768
MEAN_MOTION    = 14.33740707
ECCENTRICITY   = .0069062
INCLINATION    = 98.3150
RA_OF_ASC_NODE = 1.9700
ARG_OF_PERICENTER = 245.1997
MEAN_ANOMALY   = 226.6431

EPHEMERIS_TYPE = 0
CLASSIFICATION_TYPE = U
NORAD_CAT_ID   = 27601
ELEMENT_SET_NO = 999
REV_AT_EPOCH   = 21007
BSTAR          = .15242E-3
MEAN_MOTION_DOT = .392E-5
MEAN_MOTION_DDOT = 0

CCSDS_OMM_VERS = 2.0
CREATION_DATE  = 
ORIGINATOR     = 

OBJECT_NAME    = CZ-4B R/B
OBJECT_ID      = 2003-049C
CENTER_NAME    = EARTH
REF_FRAME      = TEME
TIME_SYSTEM    = UTC
MEAN_ELEMENT_THEORY = SGP/SGP4

EPOCH          = 2026-02-09T11:07:32.951712
MEAN_MOTION    = 14.54989120
ECCENTRICITY   = .0047423
INCLINATION    = 98.6849
RA_OF_ASC_NODE = 34.2682
ARG_OF_PERICENTER = 318.9817
MEAN_ANOMALY   = 40.7815

EPHEMERIS_TYPE = 0
CLASSIFICATION_TYPE = U
NORAD_CAT_ID   = 28059
ELEMENT_SET_NO = 999
REV_AT_EPOCH   = 18249
BSTAR          = .15065E-3
MEAN_MOTION_DOT = .606E-5
MEAN_MOTION_DDOT = 0

CCSDS_OMM_VERS = 2.0
CREATION_DATE  = 
ORIGINATOR     = 

OBJECT_NAME    = CZ-2C R/B
OBJECT_ID      = 2004-012C
CENTER_NAME    = EARTH
REF_FRAME      = TEME
TIME_SYSTEM    = UTC
MEAN_ELEMENT_THEORY = SGP/SGP4

EPOCH          = 2026-02-09T02:46:19.834176
MEAN_MOTION    = 15.61253512
ECCENTRICITY   = .00158831
INCLINATION    = 97.7306
RA_OF_ASC_NODE = 102.7671
ARG_OF_PERICENTER = 58.8429
MEAN_ANOMALY   = 301.4383

EPHEMERIS_TYPE = 0
CLASSIFICATION_TYPE = U
NORAD_CAT_ID   = 28222
ELEMENT_SET_NO = 999
REV_AT_EPOCH   = 19981
BSTAR          = .5284397E-3
MEAN_MOTION_DOT = .45102E-3
MEAN_MOTION_DDOT = 0

CCSDS_OMM_VERS = 2.0
CREATION_DATE  = 
ORIGINATOR     = 

OBJECT_NAME    = SL-16 R/B
OBJECT_ID      = 2004-021B
CENTER_NAME    = EARTH
REF_FRAME      = TEME
TIME_SYSTEM    = UTC
MEAN_ELEMENT_THEORY = SGP/SGP4

EPOCH          = 2026-02-09T02:25:48.895104
MEAN_MOTION    = 14.14590089
ECCENTRICITY   = .00029581
INCLINATION    = 70.9998
RA_OF_ASC_NODE = 292.4907
ARG_OF_PERICENTER = 81.3411
MEAN_ANOMALY   = 278.8046

EPHEMERIS_TYPE = 0
CLASSIFICATION_TYPE = U
NORAD_CAT_ID   = 28353
ELEMENT_SET_NO = 999
REV_AT_EPOCH   = 11879
BSTAR          = .9369398E-4
MEAN_MOTION_DOT = .132E-5
MEAN_MOTION_DDOT = 0

CCSDS_OMM_VERS = 2.0
CREATION_DATE  = 
ORIGINATOR     = 

OBJECT_NAME    = CZ-4B R/B
OBJECT_ID      = 2004-035C
CENTER_NAME    = EARTH
REF_FRAME      = TEME
TIME_SYSTEM    = UTC
MEAN_ELEMENT_THEORY = SGP/SGP4

EPOCH          = 2026-02-09T01:03:47.449152
MEAN_MOTION    = 15.28532312
ECCENTRICITY   = .0034135
INCLINATION    = 97.3548
RA_OF_ASC_NODE = 74.6358
ARG_OF_PERICENTER = 71.3855
MEAN_ANOMALY   = 289.1086

EPHEMERIS_TYPE = 0
CLASSIFICATION_TYPE = U
NORAD_CAT_ID   = 28415
ELEMENT_SET_NO = 999
REV_AT_EPOCH   = 17553
BSTAR          = .34242E-3
MEAN_MOTION_DOT = .9599E-4
MEAN_MOTION_DDOT = 0

CCSDS_OMM_VERS = 2.0
CREATION_DATE  = 
ORIGINATOR     = 

OBJECT_NAME    = CZ-2C R/B
OBJECT_ID      = 2004-046B
CENTER_NAME    = EARTH
REF_FRAME      = TEME
TIME_SYSTEM    = UTC
MEAN_ELEMENT_THEORY = SGP/SGP4

EPOCH          = 2026-02-09T08:49:39.678240
MEAN_MOTION    = 14.26982239
ECCENTRICITY   = .0138332
INCLINATION    = 98.1994
RA_OF_ASC_NODE = 317.1108
ARG_OF_PERICENTER = 238.4202
MEAN_ANOMALY   = 120.3415

EPHEMERIS_TYPE = 0
CLASSIFICATION_TYPE = U
NORAD_CAT_ID   = 28480
ELEMENT_SET_NO = 999
REV_AT_EPOCH   = 10446
BSTAR          = .79757E-4
MEAN_MOTION_DOT = .172E-5
MEAN_MOTION_DDOT = 0

CCSDS_OMM_VERS = 2.0
CREATION_DATE  = 
ORIGINATOR     = 

OBJECT_NAME    = ARIANE 5 R/B
OBJECT_ID      = 2004-049H
CENTER_NAME    = EARTH
REF_FRAME      = TEME
TIME_SYSTEM    = UTC
MEAN_ELEMENT_THEORY = SGP/SGP4

EPOCH          = 2026-02-09T11:19:53.302080
MEAN_MOTION    = 14.85208492
ECCENTRICITY   = .0085502
INCLINATION    = 98.2582
RA_OF_ASC_NODE = 207.8826
ARG_OF_PERICENTER = 82.7071
MEAN_ANOMALY   = 278.3851

EPHEMERIS_TYPE = 0
CLASSIFICATION_TYPE = U
NORAD_CAT_ID   = 28499
ELEMENT_SET_NO = 999
REV_AT_EPOCH   = 14160
BSTAR          = .1373E-3
MEAN_MOTION_DOT = .1193E-4
MEAN_MOTION_DDOT = 0

CCSDS_OMM_VERS = 2.0
CREATION_DATE  = 
ORIGINATOR     = 

OBJECT_NAME    = CZ-2D R/B
OBJECT_ID      = 2005-024B
CENTER_NAME    = EARTH
REF_FRAME      = TEME
TIME_SYSTEM    = UTC
MEAN_ELEMENT_THEORY = SGP/SGP4

EPOCH          = 2026-02-09T11:08:44.710368
MEAN_MOTION    = 15.57673086
ECCENTRICITY   = .0007467
INCLINATION    = 97.3624
RA_OF_ASC_NODE = 54.6313
ARG_OF_PERICENTER = 114.8517
MEAN_ANOMALY   = 245.3516

EPHEMERIS_TYPE = 0
CLASSIFICATION_TYPE = U
NORAD_CAT_ID   = 28738
ELEMENT_SET_NO = 999
REV_AT_EPOCH   = 13538
BSTAR          = .57452E-3
MEAN_MOTION_DOT = .42613E-3
MEAN_MOTION_DDOT = 0

